LIZZIESAT-2 (LS-2)      
1 62383U 24247G   26068.49140277  .00009388  00000+0  34517-3 0  9997
2 62383  44.9909 117.0823 0004092 327.5136  32.5495 15.28222796 67716
STARLINK-36540          
1 67511U 26012U   26068.39742260  .00029617  00000+0  10815-2 0  9997
2 67511  42.9903 316.3747 0000993 107.9726 252.1234 15.27578005  7717
